BEIDOU-2 M4             
1 38251U 12018B   26167.58401999 -.00000071  00000+0  00000+0 0  9995
2 38251  55.6586 304.1100 0011292 275.7806  84.0759  1.86229375 95937
ARIRANG-3 (KOMPSAT-3)   
1 38338U 12025B   26168.85387753  .00000342  00000+0  77109-4 0  9990
2 38338  98.1171 126.3023 0006692 107.6712 252.5221 14.62206703751449
METOP-B                 
1 38771U 12049A   26168.82314677  .00000079  00000+0  55884-4 0  9992
2 38771  98.6504 220.3097 0002197  18.1455 341.9801 14.21432878713351
SJ-9A                   
1 38860U 12056A   26168.77069556  .00000755  00000+0  93210-4 0  9992
2 38860  97.6709 140.7010 0024003 254.6297 105.2266 14.85479305699677
COSMOS 2484 (RODNIK-S 6)
1 39059U 13001C   26168.87051916  .00000118  00000+0  77607-3 0  9990
2 39059  82.5012 221.4678 0026861  35.1606 325.1240 12.42939540608640
SARAL                   
1 39086U 13009A   26168.80904988  .00000066  00000+0  40337-4 0  9990
2 39086  98.5556 355.3683 0000687 304.7351  55.3768 14.32856107695699
STRAND-1                
1 39090U 13009E   26168.40411720  .00000200  00000+0  81523-4 0  9990
2 39090  98.3921 348.6331 0007740 224.5374 135.5192 14.37163347697094
BRITE-AUSTRIA           
1 39091U 13009F   26168.41708634  .00000131  00000+0  59167-4 0  9997
2 39091  98.3994 347.8470 0009161 235.6981 124.3339 14.36542205697087
GAOFEN-1                
1 39150U 13018A   26168.87621369 -.00000073  00000+0 -32076-5 0  9990
2 39150  97.9097 240.9299 0015680 264.0846  95.8577 14.76535379708349
NEE-01 PEGASO           
1 39151U 13018B   26168.13162645  .00002236  00000+0  21710-3 0  9999
2 39151  98.1222 312.2794 0013099 159.5511 200.6235 14.93659532710690
PROBA-V                 
1 39159U 13021A   26168.82200324  .00000042  00000+0  36393-4 0  9991
2 39159  98.3584 147.3973 0005165 121.9484 238.2198 14.23597042681203
ARIRANG-5 (KOMPSAT-5)   
1 39227U 13042A   26168.83119568  .00000894  00000+0  68204-4 0  9991
2 39227  97.6200 355.5227 0005403 118.3277 241.8494 15.04494428703956
GONETS-M 5              
1 39249U 13048A   26168.83938435 -.00000017  00000+0 -19332-3 0  9999
2 39249  82.4827 342.9752 0016113 208.9034 151.1155 12.42891738578969
GONETS-M 7              
1 39251U 13048C   26168.88282571 -.00000015  00000+0 -17932-3 0  9992
2 39251  82.4893 345.8709 0016884 210.2192 149.7915 12.42914584578923
FENGYUN 3C              
1 39260U 13052A   26168.82122313  .00000057  00000+0  50054-4 0  9995
2 39260  98.4987 142.6669 0015227  25.8728 334.3205 14.15755109658658
CASSIOPE                
1 39265U 13055A   26168.81808515  .00044002 -50921-6  47993-3 0  9997
2 39265  80.9141  65.9560 0292536  60.3279 302.6736 15.25243540667765
APRIZESAT 7             
1 39416U 13066A   26168.82481251  .00000998  00000+0  10411-3 0  9998
2 39416  97.7709 122.0355 0035048 207.1269 152.8120 14.91565344681320
ZACUBE-1 (TSHEPISOSAT)  
1 39417U 13066B   26168.80721939  .00002437  00000+0  19168-3 0  9995
2 39417  97.8078 131.1473 0040884 245.5707 114.1249 15.01191740680824
APRIZESAT 8             
1 39425U 13066K   26168.81406071  .00000765  00000+0  88832-4 0  9999
2 39425  97.8220 116.2732 0044416 284.4333  75.1956 14.87653721679763
TRITON-1                
1 39427U 13066M   26168.83587672  .00001168  00000+0  14551-3 0  9994
2 39427  97.8251  78.6286 0088521 231.7956 127.5263 14.81705974674181
